OBJECT_NAME,OBJECT_ID,EPOCH,MEAN_MOTION,ECCENTRICITY,INCLINATION,RA_OF_ASC_NODE,ARG_OF_PERICENTER,MEAN_ANOMALY,EPHEMERIS_TYPE,CLASSIFICATION_TYPE,NORAD_CAT_ID,ELEMENT_SET_NO,REV_AT_EPOCH,BSTAR,MEAN_MOTION_DOT,MEAN_MOTION_DDOT
ONEWEB-0410,2022-012A,2026-07-15T23:55:47.603136,13.17650489,.00017002,87.9158,0.1281,49.9028,310.2252,0,U,51622,999,21749,-.12110912E-3,-.34E-6,0
ONEWEB-0411,2022-012B,2026-07-16T06:11:52.964160,13.10375179,.00023276,87.8823,30.4749,95.6174,264.5219,0,U,51623,999,21309,-.19458849E-2,-.667E-5,0
ONEWEB-0415,2022-012C,2026-07-16T06:06:59.220576,13.10373032,.00021223,87.8819,30.4731,87.4385,272.6985,0,U,51624,999,21309,-.22629713E-2,-.777E-5,0
ONEWEB-0416,2022-012D,2026-07-16T00:54:14.590368,13.10377014,.00021876,87.8815,30.5334,83.7385,276.3992,0,U,51625,999,21310,-.1161643E-2,-.393E-5,0
ONEWEB-0422,2022-012E,2026-07-15T22:21:01.437696,13.17648978,.0001921,87.9155,0.1418,113.5281,246.6053,0,U,51626,999,21759,-.53686E-3,-.196E-5,0
ONEWEB-0423,2022-012F,2026-07-15T22:11:18.749184,13.17648598,.0001753,87.9147,0.1466,88.8670,271.2663,0,U,51627,999,21748,-.12689E-3,-.36E-6,0
ONEWEB-0425,2022-012G,2026-07-16T01:08:54.316032,13.10389148,.00012761,87.8822,30.5151,44.5261,315.5969,0,U,51628,999,21310,.42375592E-2,.1492E-4,0
ONEWEB-0428,2022-012H,2026-07-16T06:09:25.868160,13.10375119,.00018073,87.8812,30.4801,88.2272,271.9062,0,U,51629,999,21309,-.18289088E-2,-.626E-5,0
ONEWEB-0431,2022-012J,2026-07-16T05:25:16.015584,13.10371138,.00024022,87.8815,30.4792,96.6650,263.4750,0,U,51630,999,21314,.14930762E-2,.534E-5,0
ONEWEB-0434,2022-012K,2026-07-16T01:14:00.963456,13.10377398,.00015486,87.8824,30.5402,68.6466,291.4827,0,U,51631,999,21310,.6951417E-3,.255E-5,0
ONEWEB-0435,2022-012L,2026-07-16T01:23:34.938528,13.10378347,.00018897,87.8815,30.5227,97.9471,262.1871,0,U,51632,999,21309,.15496857E-2,.554E-5,0
ONEWEB-0436,2022-012M,2026-07-15T23:48:30.305952,13.17647429,.00019171,87.9155,0.1170,100.1975,259.9373,0,U,51633,999,21747,-.1890196E-4,.6E-7,0
ONEWEB-0438,2022-012N,2026-07-16T01:01:33.371904,13.10378295,.00018119,87.8817,30.5301,80.2716,279.8616,0,U,51634,999,21312,-.5460735E-3,-.178E-5,0
ONEWEB-0439,2022-012P,2026-07-16T06:36:19.644768,13.10377409,.00017646,87.8819,30.4710,86.3269,273.8061,0,U,51635,999,21313,-.38961658E-3,-.123E-5,0
ONEWEB-0442,2022-012Q,2026-07-16T05:05:37.668192,13.17650561,.00017002,87.9146,0.1037,74.5861,285.5458,0,U,51636,999,21749,-.19812117E-4,.5E-7,0
ONEWEB-0443,2022-012R,2026-07-16T00:05:30.705504,13.17647772,.00015219,87.9146,0.1459,98.1570,261.9734,0,U,51637,999,21751,.59924822E-4,.36E-6,0
ONEWEB-0444,2022-012S,2026-07-16T06:21:38.700000,13.10375272,.00016782,87.8819,30.4719,90.5603,269.5716,0,U,51638,999,21314,-.23590201E-2,-.811E-5,0
ONEWEB-0445,2022-012T,2026-07-16T01:21:07.302528,13.10378490,.00019534,87.8825,30.5034,85.7574,274.3776,0,U,51639,999,21312,.1253484E-2,.45E-5,0
ONEWEB-0446,2022-012U,2026-07-16T06:19:11.646336,13.10373553,.00021439,87.8816,30.4892,82.5498,277.5873,0,U,51640,999,21313,-.18726552E-2,-.641E-5,0
ONEWEB-0448,2022-012V,2026-07-16T00:56:40.000704,13.10378638,.00017938,87.8816,30.5296,87.5980,272.5353,0,U,51641,999,21307,-.1052852E-2,-.355E-5,0
ONEWEB-0449,2022-012W,2026-07-16T01:04:00.265728,13.10376902,.00018537,87.8823,30.5155,68.0506,292.0818,0,U,51642,999,21308,-.26532613E-3,-.8E-6,0
ONEWEB-0451,2022-012X,2026-07-16T05:11:40.937856,13.17650863,.00017006,87.9157,0.0707,89.0895,271.0432,0,U,51643,999,21748,-.80605478E-4,-.18E-6,0
ONEWEB-0452,2022-012Y,2026-07-16T05:09:15.619104,13.17647375,.00015606,87.9148,0.1051,92.6201,267.5109,0,U,51644,999,21749,-.23480607E-4,.4E-7,0
ONEWEB-0456,2022-012AA,2026-07-16T01:16:13.121760,13.10375445,.00017934,87.8832,30.5030,92.0071,268.1262,0,U,51646,999,21312,.84983078E-3,.309E-5,0
ONEWEB-0457,2022-012AB,2026-07-16T06:14:06.916128,13.10374003,.00020975,87.8816,30.4774,79.4831,280.6533,0,U,51647,999,21315,-.25370561E-2,-.873E-5,0
ONEWEB-0458,2022-012AC,2026-07-16T01:15:01.001088,13.10376303,.00016339,87.8822,30.5070,86.4935,273.6379,0,U,51648,999,21308,.83920677E-3,.306E-5,0
ONEWEB-0461,2022-012AD,2026-07-16T02:02:09.267936,13.17650750,.00019332,87.9156,0.1103,90.2929,269.8424,0,U,51649,999,21769,.13075972E-3,.64E-6,0
ONEWEB-0463,2022-012AE,2026-07-15T23:46:04.526688,13.17650681,.00019801,87.9146,0.1491,90.7596,269.3763,0,U,51650,999,21746,.6451004E-5,.15E-6,0
ONEWEB-0464,2022-012AF,2026-07-16T01:11:21.358464,13.10375731,.00016044,87.8817,30.5286,93.9565,266.1746,0,U,51651,999,21310,.41078512E-3,.156E-5,0
ONEWEB-0468,2022-012AG,2026-07-16T01:18:40.097664,13.10375072,.00016969,87.8814,30.5206,94.6138,265.5183,0,U,51652,999,21308,.99387156E-3,.36E-5,0
