ONEWEB-0410             
1 51622U 22012A   26196.99707874 -.00000034  00000+0 -12111-3 0  9995
2 51622  87.9158   0.1281 0001700  49.9028 310.2252 13.17650489217490
ONEWEB-0411             
1 51623U 22012B   26197.25825190 -.00000667  00000+0 -19459-2 0  9991
2 51623  87.8823  30.4749 0002327  95.6174 264.5219 13.10375179213099
ONEWEB-0415             
1 51624U 22012C   26197.25485209 -.00000777  00000+0 -22630-2 0  9992
2 51624  87.8819  30.4731 0002122  87.4385 272.6985 13.10373032213098
ONEWEB-0416             
1 51625U 22012D   26197.03766887 -.00000393  00000+0 -11616-2 0  9999
2 51625  87.8815  30.5334 0002187  83.7385 276.3992 13.10377014213100
ONEWEB-0422             
1 51626U 22012E   26196.93126664 -.00000196  00000+0 -53686-3 0  9996
2 51626  87.9155   0.1418 0001921 113.5281 246.6053 13.17648978217599
ONEWEB-0423             
1 51627U 22012F   26196.92452256 -.00000036  00000+0 -12689-3 0  9996
2 51627  87.9147   0.1466 0001753  88.8670 271.2663 13.17648598217480
ONEWEB-0425             
1 51628U 22012G   26197.04785088  .00001492  00000+0  42376-2 0  9993
2 51628  87.8822  30.5151 0001276  44.5261 315.5969 13.10389148213105
ONEWEB-0428             
1 51629U 22012H   26197.25654940 -.00000626  00000+0 -18289-2 0  9995
2 51629  87.8812  30.4801 0001807  88.2272 271.9062 13.10375119213093
ONEWEB-0431             
1 51630U 22012J   26197.22587981  .00000534  00000+0  14931-2 0  9990
2 51630  87.8815  30.4792 0002402  96.6650 263.4750 13.10371138213145
ONEWEB-0434             
1 51631U 22012K   26197.05140004  .00000255  00000+0  69514-3 0  9991
2 51631  87.8824  30.5402 0001548  68.6466 291.4827 13.10377398213105
ONEWEB-0435             
1 51632U 22012L   26197.05804327  .00000554  00000+0  15497-2 0  9999
2 51632  87.8815  30.5227 0001889  97.9471 262.1871 13.10378347213097
ONEWEB-0436             
1 51633U 22012M   26196.99201743  .00000006  00000+0 -18902-4 0  9994
2 51633  87.9155   0.1170 0001917 100.1975 259.9373 13.17647429217478
ONEWEB-0438             
1 51634U 22012N   26197.04274736 -.00000178  00000+0 -54607-3 0  9996
2 51634  87.8817  30.5301 0001811  80.2716 279.8616 13.10378295213124
ONEWEB-0439             
1 51635U 22012P   26197.27522737 -.00000123  00000+0 -38962-3 0  9995
2 51635  87.8819  30.4710 0001764  86.3269 273.8061 13.10377409213132
ONEWEB-0442             
1 51636U 22012Q   26197.21224153  .00000005  00000+0 -19812-4 0  9993
2 51636  87.9146   0.1037 0001700  74.5861 285.5458 13.17650561217493
ONEWEB-0443             
1 51637U 22012R   26197.00382761  .00000036  00000+0  59925-4 0  9993
2 51637  87.9146   0.1459 0001521  98.1570 261.9734 13.17647772217510
ONEWEB-0444             
1 51638U 22012S   26197.26503125 -.00000811  00000+0 -23590-2 0  9991
2 51638  87.8819  30.4719 0001678  90.5603 269.5716 13.10375272213143
ONEWEB-0445             
1 51639U 22012T   26197.05633452  .00000450  00000+0  12535-2 0  9990
2 51639  87.8825  30.5034 0001953  85.7574 274.3776 13.10378490213124
ONEWEB-0446             
1 51640U 22012U   26197.26332924 -.00000641  00000+0 -18727-2 0  9998
2 51640  87.8816  30.4892 0002143  82.5498 277.5873 13.10373553213138
ONEWEB-0448             
1 51641U 22012V   26197.03935186 -.00000355  00000+0 -10529-2 0  9997
2 51641  87.8816  30.5296 0001793  87.5980 272.5353 13.10378638213079
ONEWEB-0449             
1 51642U 22012W   26197.04444752 -.00000080  00000+0 -26533-3 0  9991
2 51642  87.8823  30.5155 0001853  68.0506 292.0818 13.10376902213083
ONEWEB-0451             
1 51643U 22012X   26197.21644604 -.00000018  00000+0 -80605-4 0  9991
2 51643  87.9157   0.0707 0001700  89.0895 271.0432 13.17650863217480
ONEWEB-0452             
1 51644U 22012Y   26197.21476411  .00000004  00000+0 -23481-4 0  9994
2 51644  87.9148   0.1051 0001560  92.6201 267.5109 13.17647375217495
ONEWEB-0456             
1 51646U 22012AA  26197.05292965  .00000309  00000+0  84983-3 0  9998
2 51646  87.8832  30.5030 0001793  92.0071 268.1262 13.10375445213129
ONEWEB-0457             
1 51647U 22012AB  26197.25980227 -.00000873  00000+0 -25371-2 0  9999
2 51647  87.8816  30.4774 0002097  79.4831 280.6533 13.10374003213159
ONEWEB-0458             
1 51648U 22012AC  26197.05209492  .00000306  00000+0  83921-3 0  9991
2 51648  87.8822  30.5070 0001633  86.4935 273.6379 13.10376303213082
ONEWEB-0461             
1 51649U 22012AD  26197.08482949  .00000064  00000+0  13076-3 0  9990
2 51649  87.9156   0.1103 0001933  90.2929 269.8424 13.17650750217690
ONEWEB-0463             
1 51650U 22012AE  26196.99033017  .00000015  00000+0  64510-5 0  9996
2 51650  87.9146   0.1491 0001980  90.7596 269.3763 13.17650681217467
ONEWEB-0464             
1 51651U 22012AF  26197.04955276  .00000156  00000+0  41079-3 0  9993
2 51651  87.8817  30.5286 0001604  93.9565 266.1746 13.10375731213101
ONEWEB-0468             
1 51652U 22012AG  26197.05463076  .00000360  00000+0  99387-3 0  9999
2 51652  87.8814  30.5206 0001696  94.6138 265.5183 13.10375072213089
